{"result":"*******************************************************************************
 Revised: April 12, 2021               Jupiter                              599
 
 PHYSICAL DATA (revised 2025-Jan-30):
  Mass x 10^26 (kg)     = 18.9819           Density (g/cm^3)  = 1.3262 +- .0003
  Equat. radius (1 bar) = 71492+-4 km       Polar radius (km)     = 66854+-10
  Vol. Mean Radius (km) = 69911+-6          Flattening            = 0.06487
  Geometric Albedo      = 0.52              Rocky core mass (Mc/M)= 0.0261
  Sid. rot. period (III)= 9h 55m 29.711 s   Sid. rot. rate (rad/s)= 0.00017585
  Mean solar day, hrs   = ~9.9259         
  GM (km^3/s^2)         = 126686531.900     GM 1-sigma (km^3/s^2) =  +- 1.2732
  Equ. grav, ge (m/s^2) = 24.79             Pol. grav, gp (m/s^2) =  28.34
  Vis. magnitude V(1,0) = -9.40
  Vis. mag. (opposition)= -2.70             Obliquity to orbit    =  3.13 deg
  Sidereal orbit period = 11.861982204 y    Sidereal orbit period = 4332.589 d
  Mean daily motion     = 0.0831294 deg/d   Mean orbit speed, km/s= 13.0697
  Atmos. temp. (1 bar)  = 165+-5 K          Escape speed, km/s    =  59.5           
  A_roche(ice)/Rp       =  2.76             Hill's sphere rad. Rp = 740
                                 Perihelion   Aphelion     Mean
  Solar Constant (W/m^2)         56           46           51
  Maximum Planetary IR (W/m^2)   13.7         13.4         13.6
  Minimum Planetary IR (W/m^2)   13.7         13.4         13.6
*******************************************************************************


*******************************************************************************
Ephemeris / API_USER Sat Sep 20 11:46:50 2025 Pasadena, USA      / Horizons    
*******************************************************************************
Target body name: Jupiter (599)                   {source: jup365_merged}
Center body name: Earth (399)                     {source: DE441}
Center-site name: GEOCENTRIC
*******************************************************************************
Start time      : A.D. 1999-Dec-31 00:00:00.0000 UT      
Stop  time      : A.D. 2000-Jan-02 00:00:00.0000 UT      
Step-size       : 60 minutes
*******************************************************************************
Target pole/equ : IAU_JUPITER                     {West-longitude positive}
Target radii    : 71492.0, 71492.0, 66854.0 km    {Equator_a, b, pole_c}       
Center geodetic : 0.0, 0.0, -6378.137             {E-lon(deg),Lat(deg),Alt(km)}
Center cylindric: 0.0, 0.0, 0.0                   {E-lon(deg),Dxy(km),Dz(km)}
Center pole/equ : ITRF93                          {East-longitude positive}
Center radii    : 6378.137, 6378.137, 6356.752 km {Equator_a, b, pole_c}       
Target primary  : Sun
Vis. interferer : MOON (R_eq= 1737.400) km        {source: DE441}
Rel. light bend : Sun                             {source: jup365_merged}
Rel. lght bnd GM: 1.3271E+11 km^3/s^2                                          
Atmos refraction: NO (AIRLESS)
RA format       : HMS
Time format     : CAL 
Calendar mode   : Mixed Julian/Gregorian
EOP file        : eop.250919.p251216                                           
EOP coverage    : DATA-BASED 1962-JAN-20 TO 2025-SEP-19. PREDICTS-> 2025-DEC-15
Units conversion: 1 au= 149597870.700 km, c= 299792.458 km/s, 1 day= 86400.0 s 
Table cut-offs 1: Elevation (-90.0deg=NO ),Airmass (>38.000=NO), Daylight (NO )
Table cut-offs 2: Solar elongation (  0.0,180.0=NO ),Local Hour Angle( 0.0=NO )
Table cut-offs 3: RA/DEC angular rate (     0.0=NO )                           
Table format    : Comma Separated Values (spreadsheet)
*******************************************************************************
 Date__(UT)__HR:MN, , ,   APmag,  S-brt,
****************************************
$$SOE
 1999-Dec-31 00:00, , ,  -2.533,  5.356,
 1999-Dec-31 01:00, , ,  -2.532,  5.356,
 1999-Dec-31 02:00, , ,  -2.532,  5.356,
 1999-Dec-31 03:00, , ,  -2.532,  5.356,
 1999-Dec-31 04:00, , ,  -2.531,  5.356,
 1999-Dec-31 05:00, , ,  -2.531,  5.356,
 1999-Dec-31 06:00, , ,  -2.531,  5.356,
 1999-Dec-31 07:00, , ,  -2.530,  5.356,
 1999-Dec-31 08:00, , ,  -2.530,  5.356,
 1999-Dec-31 09:00, , ,  -2.530,  5.356,
 1999-Dec-31 10:00, , ,  -2.529,  5.356,
 1999-Dec-31 11:00, , ,  -2.529,  5.356,
 1999-Dec-31 12:00, , ,  -2.529,  5.356,
 1999-Dec-31 13:00, , ,  -2.528,  5.356,
 1999-Dec-31 14:00, , ,  -2.528,  5.356,
 1999-Dec-31 15:00, , ,  -2.528,  5.356,
 1999-Dec-31 16:00, , ,  -2.527,  5.356,
 1999-Dec-31 17:00, , ,  -2.527,  5.356,
 1999-Dec-31 18:00, , ,  -2.527,  5.357,
 1999-Dec-31 19:00, , ,  -2.526,  5.357,
 1999-Dec-31 20:00, , ,  -2.526,  5.357,
 1999-Dec-31 21:00, , ,  -2.526,  5.357,
 1999-Dec-31 22:00, , ,  -2.525,  5.357,
 1999-Dec-31 23:00, , ,  -2.525,  5.357,
 2000-Jan-01 00:00, , ,  -2.525,  5.357,
 2000-Jan-01 01:00, , ,  -2.524,  5.357,
 2000-Jan-01 02:00, , ,  -2.524,  5.357,
 2000-Jan-01 03:00, , ,  -2.524,  5.357,
 2000-Jan-01 04:00, , ,  -2.523,  5.357,
 2000-Jan-01 05:00, , ,  -2.523,  5.357,
 2000-Jan-01 06:00, , ,  -2.523,  5.357,
 2000-Jan-01 07:00, , ,  -2.522,  5.357,
 2000-Jan-01 08:00, , ,  -2.522,  5.357,
 2000-Jan-01 09:00, , ,  -2.522,  5.357,
 2000-Jan-01 10:00, , ,  -2.521,  5.357,
 2000-Jan-01 11:00, , ,  -2.521,  5.357,
 2000-Jan-01 12:00, , ,  -2.521,  5.357,
 2000-Jan-01 13:00, , ,  -2.520,  5.357,
 2000-Jan-01 14:00, , ,  -2.520,  5.357,
 2000-Jan-01 15:00, , ,  -2.520,  5.357,
 2000-Jan-01 16:00, , ,  -2.519,  5.357,
 2000-Jan-01 17:00, , ,  -2.519,  5.357,
 2000-Jan-01 18:00, , ,  -2.519,  5.357,
 2000-Jan-01 19:00, , ,  -2.518,  5.357,
 2000-Jan-01 20:00, , ,  -2.518,  5.357,
 2000-Jan-01 21:00, , ,  -2.518,  5.357,
 2000-Jan-01 22:00, , ,  -2.517,  5.357,
 2000-Jan-01 23:00, , ,  -2.517,  5.357,
 2000-Jan-02 00:00, , ,  -2.517,  5.357,
$$EOE
*******************************************************************************
Column meaning:
 
TIME

  Times PRIOR to 1962 are UT1, a mean-solar time closely related to the
prior but now-deprecated GMT. Times AFTER 1962 are in UTC, the current
civil or \"wall-clock\" time-scale. UTC is kept within 0.9 seconds of UT1
using integer leap-seconds for 1972 and later years.

  Conversion from the internal Barycentric Dynamical Time (TDB) of solar
system dynamics to the non-uniform civil UT time-scale requested for output
has not been determined for UTC times after the next July or January 1st.
Therefore, the last known leap-second is used as a constant over future
intervals.

  Time tags refer to the UT time-scale conversion from TDB on Earth
regardless of observer location within the solar system, although clock
rates may differ due to the local gravity field and no analog to \"UT\"
may be defined for that location.

  Any 'b' symbol in the 1st-column denotes a B.C. date. First-column blank
(\" \") denotes an A.D. date.
 
CALENDAR SYSTEM

  Mixed calendar mode was active such that calendar dates after AD 1582-Oct-15
(if any) are in the modern Gregorian system. Dates prior to 1582-Oct-5 (if any)
are in the Julian calendar system, which is automatically extended for dates
prior to its adoption on 45-Jan-1 BC.  The Julian calendar is useful for
matching historical dates. The Gregorian calendar more accurately corresponds
to the Earth's orbital motion and seasons. A \"Gregorian-only\" calendar mode is
available if such physical events are the primary interest.

  NOTE: \"n.a.\" in output means quantity \"not available\" at the print-time.
 
 'APmag,  S-brt,' =
  The targets' approximate apparent visual magnitude and surface brightness.
For planets and natural satellites, output is restricted to solar phase angles
covered by observational data. Outside the observed phase angle range, \"n.a.\"
may be output to avoid extrapolation beyond the limit of model validity.

   For Earth-based observers, the estimated dimming due to atmospheric
absorption (extinction) is available as a separate, requestable quantity.

   Surface brightness is the average airless visual magnitude of a
square-arcsecond of the illuminated portion of the apparent disk. It is
computed only if the target radius is known.

   Units: MAGNITUDES & MAGNITUDES PER SQUARE ARCSECOND

Computations by ...

    Solar System Dynamics Group, Horizons On-Line Ephemeris System
    4800 Oak Grove Drive, Jet Propulsion Laboratory
    Pasadena, CA  91109   USA

    General site: https://ssd.jpl.nasa.gov/
    Mailing list: https://ssd.jpl.nasa.gov/email_list.html
    System news : https://ssd.jpl.nasa.gov/horizons/news.html
    User Guide  : https://ssd.jpl.nasa.gov/horizons/manual.html
    Connect     : browser        https://ssd.jpl.nasa.gov/horizons/app.html#/x
                  API            https://ssd-api.jpl.nasa.gov/doc/horizons.html
                  command-line   telnet ssd.jpl.nasa.gov 6775
                  e-mail/batch   https://ssd.jpl.nasa.gov/ftp/ssd/horizons_batch.txt
                  scripts        https://ssd.jpl.nasa.gov/ftp/ssd/SCRIPTS
    Author      : Jon.D.Giorgini@jpl.nasa.gov

*******************************************************************************
","signature":{"source":"NASA/JPL Horizons API","version":"1.2"}}
